NORAD_CAT_ID,OBJECT_NAME,OBJECT_TYPE,EPOCH,MEAN_MOTION,ECCENTRICITY,INCLINATION,RA_OF_ASC_NODE,ARG_OF_PERICENTER,MEAN_ANOMALY,BSTAR,MEAN_MOTION_DOT,MEAN_MOTION_DDOT,TLE_LINE0,TLE_LINE1,TLE_LINE2,SEMIMAJOR_AXIS,PERIOD,APOGEE,PERIGEE,DECAYED
50183.0,STARLINK-3281,PAYLOAD,2023-03-06 11:28:31,15.08737193,0.0001472,53.2146,143.6744,87.3901,272.7259,0.0032097,0.0005102,0.0,0 STARLINK-3281,1 50183U 21125AD  23065.47814541  .00051020  00000-0  32097-2 0  9999,2 50183  53.2146 143.6744 0001472  87.3901 272.7259 15.08737193 67574,6918.195,95.444,541.078,539.041,0.0
50183.0,STARLINK-3281,PAYLOAD,2023-03-06 16:14:42,15.08760922,0.0001568,53.214,142.7826,86.5886,273.5285,0.0028823,0.00045783,0.0,0 STARLINK-3281,1 50183U 21125AD  23065.67687705  .00045783  00000-0  28823-2 0  9992,2 50183  53.2140 142.7826 0001568  86.5886 273.5285 15.08760922 70734,6918.122,95.443,541.072,538.902,0.0
50183.0,STARLINK-3281,PAYLOAD,2023-03-07 16:05:31,15.08854229,0.0001685,53.2153,138.3208,87.364,272.7545,0.0032592,0.00051986,0.0,0 STARLINK-3281,1 50183U 21125AD  23066.67050042  .00051986  00000-0  32592-2 0  9991,2 50183  53.2153 138.3208 0001685  87.3640 272.7545 15.08854229 67752,6917.837,95.437,540.868,538.536,0.0
50183.0,STARLINK-3281,PAYLOAD,2023-03-08 04:48:36,15.08845958,0.0001236,53.2156,135.9425,93.2282,266.8852,0.0015058,0.00023762,0.0,0 STARLINK-3281,1 50183U 21125AD  23067.20042490  .00023762  00000-0  15058-2 0  9998,2 50183  53.2156 135.9425 0001236  93.2282 266.8852 15.08845958 67832,6917.862,95.437,540.582,538.872,0.0
50183.0,STARLINK-3281,PAYLOAD,2023-03-08 09:34:46,15.08854773,0.0001418,53.2156,135.0496,95.1193,264.9961,0.0019729,0.00031263,0.0,0 STARLINK-3281,1 50183U 21125AD  23067.39914458  .00031263  00000-0  19729-2 0  9994,2 50183  53.2156 135.0496 0001418  95.1193 264.9961 15.08854773 70991,6917.835,95.437,540.681,538.719,0.0
50183.0,STARLINK-3281,PAYLOAD,2023-03-09 11:00:55,15.08882489,0.0001463,53.2149,130.2935,86.3389,273.777,0.0022529,0.00035791,0.0,0 STARLINK-3281,1 50183U 21125AD  23068.45897999  .00035791  00000-0  22529-2 0  9994,2 50183  53.2149 130.2935 0001463  86.3389 273.7770 15.08882489 68029,6917.751,95.435,540.628,538.603,0.0
50183.0,STARLINK-3281,PAYLOAD,2023-03-09 20:33:14,15.08863173,0.0001623,53.2149,128.509,96.7292,263.3885,0.0014924,0.00023558,0.0,0 STARLINK-3281,1 50183U 21125AD  23068.85641735  .00023558  00000-0  14924-2 0  9991,2 50183  53.2149 128.5090 0001623  96.7292 263.3885 15.08863173 71213,6917.81,95.436,540.797,538.552,0.0
50183.0,STARLINK-3281,PAYLOAD,2023-03-10 10:51:42,15.08855128,0.0001596,53.2151,125.8362,121.9758,238.139,0.00091112,0.00014248,0.0,0 STARLINK-3281,1 50183U 21125AD  23069.45257311  .00014248  00000-0  91112-3 0  9992,2 50183  53.2151 125.8362 0001596 121.9758 238.1390 15.08855128 68178,6917.834,95.437,540.803,538.595,0.0
50183.0,STARLINK-3281,PAYLOAD,2023-03-10 20:24:00,15.08856242,0.0001308,53.2154,124.0459,89.2648,270.8494,0.00059095,9.134e-05,0.0,0 STARLINK-3281,1 50183U 21125AD  23069.85001103  .00009134  00000-0  59095-3 0  9994,2 50183  53.2154 124.0459 0001308  89.2648 270.8494 15.08856242 71365,6917.831,95.437,540.601,538.791,0.0
50183.0,STARLINK-3281,PAYLOAD,2023-03-11 07:31:43,15.08833934,0.0001472,53.2151,121.9644,80.4608,279.6551,-2.8398e-05,-7.4e-06,0.0,0 STARLINK-3281,1 50183U 21125AD  23070.31369620 -.00000740  00000-0 -28398-4 0  9997,2 50183  53.2151 121.9644 0001472  80.4608 279.6551 15.08833934 68309,6917.899,95.438,540.782,538.746,0.0
50183.0,STARLINK-3281,PAYLOAD,2023-03-11 10:42:29,15.08839125,0.0001429,53.2148,121.3705,84.0484,276.067,0.00010916,1.45e-05,0.0,0 STARLINK-3281,1 50183U 21125AD  23070.44617584  .00001450  00000-0  10916-3 0  9999,2 50183  53.2148 121.3705 0001429  84.0484 276.0670 15.08839125 71452,6917.883,95.438,540.737,538.759,0.0
50183.0,STARLINK-3281,PAYLOAD,2023-03-11 15:28:38,15.08852202,0.0001574,53.2144,120.4777,83.4879,276.6292,0.00080362,0.00012529,0.0,0 STARLINK-3281,1 50183U 21125AD  23070.64489431  .00012529  00000-0  80362-3 0  9990,2 50183  53.2144 120.4777 0001574  83.4879 276.6292 15.08852202 68351,6917.843,95.437,540.797,538.619,0.0
50183.0,STARLINK-3281,PAYLOAD,2023-03-12 10:33:17,15.08830187,0.0001413,53.2143,116.9106,79.9825,280.1327,0.0015634,0.00024674,0.0,0 STARLINK-3281,1 50183U 21125AD  23071.43978936  .00024674  00000-0  15634-2 0  9994,2 50183  53.2143 116.9106 0001413  79.9825 280.1327 15.08830187 68479,6917.91,95.438,540.753,538.798,0.0
50183.0,STARLINK-3281,PAYLOAD,2023-03-14 02:17:56,15.08858065,0.0001457,53.2151,109.4758,87.4591,272.6567,0.00079988,0.00012471,0.0,0 STARLINK-3281,1 50183U 21125AD  23073.09578923  .00012471  00000-0  79988-3 0  9995,2 50183  53.2151 109.4758 0001457  87.4591 272.6567 15.08858065 68725,6917.825,95.436,540.698,538.682,0.0
50183.0,STARLINK-3281,PAYLOAD,2023-03-14 08:39:28,15.08846882,0.0001289,53.215,108.2825,96.1422,263.9717,0.00032953,4.961e-05,0.0,0 STARLINK-3281,1 50183U 21125AD  23073.36074855  .00004961  00000-0  32953-3 0  9996,2 50183  53.2150 108.2825 0001289  96.1422 263.9717 15.08846882 68767,6917.859,95.437,540.616,538.833,0.0
50183.0,STARLINK-3281,PAYLOAD,2023-03-14 19:47:10,15.08848664,0.0001325,53.2152,106.2024,88.8822,271.2322,0.00029264,4.374e-05,0.0,0 STARLINK-3281,1 50183U 21125AD  23073.82442750  .00004374  00000-0  29264-3 0  9999,2 50183  53.2152 106.2024 0001325  88.8822 271.2322 15.08848664 71961,6917.854,95.437,540.636,538.802,0.0
50183.0,STARLINK-3281,PAYLOAD,2023-03-15 11:41:01,15.08872112,0.0001516,53.2149,103.2283,89.7589,270.3577,0.0009275,0.00014517,0.0,0 STARLINK-3281,1 50183U 21125AD  23074.48681733  .00014517  00000-0  92750-3 0  9998,2 50183  53.2149 103.2283 0001516  89.7589 270.3577 15.08872112 68933,6917.782,95.436,540.696,538.599,0.0
50183.0,STARLINK-3281,PAYLOAD,2023-03-15 13:16:23,15.08881257,0.0001522,53.2153,102.932,88.7485,271.3681,0.0011878,0.00018688,0.0,0 STARLINK-3281,1 50183U 21125AD  23074.55305466  .00018688  00000-0  11878-2 0  9996,2 50183  53.2153 102.9320 0001522  88.7485 271.3681 15.08881257 72074,6917.754,95.435,540.672,538.566,0.0
50183.0,STARLINK-3281,PAYLOAD,2023-03-16 05:10:15,15.08841818,0.0001344,53.2154,99.9593,94.8421,265.2724,8.7604e-05,1.107e-05,0.0,0 STARLINK-3281,1 50183U 21125AD  23075.21546259  .00001107  00000-0  87604-4 0  9997,2 50183  53.2154  99.9593 0001344  94.8421 265.2724 15.08841818 69044,6917.875,95.437,540.67,538.81,0.0
50183.0,STARLINK-3281,PAYLOAD,2023-03-16 13:07:11,15.08841441,0.0001123,53.2155,98.473,95.9993,264.1127,0.0012546,0.00019736,0.0,0 STARLINK-3281,1 50183U 21125AD  23075.54666442  .00019736  00000-0  12546-2 0  9998,2 50183  53.2155  98.4730 0001123  95.9993 264.1127 15.08841441 72224,6917.876,95.437,540.518,538.964,0.0
50183.0,STARLINK-3281,PAYLOAD,2023-03-17 08:11:50,15.08837592,0.0001038,53.2151,94.9042,105.3244,254.7863,0.0010054,0.00015748,0.0,0 STARLINK-3281,1 50183U 21125AD  23076.34155246  .00015748  00000-0  10054-2 0  9993,2 50183  53.2151  94.9042 0001038 105.3244 254.7863 15.08837592 69216,6917.888,95.438,540.471,539.035,0.0
50183.0,STARLINK-3281,PAYLOAD,2023-03-17 12:57:59,15.08845065,0.0001063,53.215,94.0124,105.7973,254.3137,0.0012663,0.00019925,0.0,0 STARLINK-3281,1 50183U 21125AD  23076.54027221  .00019925  00000-0  12663-2 0  9995,2 50183  53.2150  94.0124 0001063 105.7973 254.3137 15.08845065 72373,6917.865,95.437,540.465,538.995,0.0
50183.0,STARLINK-3281,PAYLOAD,2023-03-17 17:44:08,15.08845232,9.65e-05,53.2148,93.1193,103.1363,256.9737,0.001007,0.00015777,0.0,0 STARLINK-3281,1 50183U 21125AD  23076.73899267  .00015777  00000-0  10070-2 0  9994,2 50183  53.2148  93.1193 0000965 103.1363 256.9737 15.08845232 72405,6917.864,95.437,540.397,539.062,0.0
50183.0,STARLINK-3281,PAYLOAD,2023-03-18 00:05:41,15.08845578,0.0001119,53.2146,91.9308,110.2889,249.8223,0.00060284,9.321e-05,0.0,0 STARLINK-3281,1 50183U 21125AD  23077.00395238  .00009321  00000-0  60284-3 0  9995,2 50183  53.2146  91.9308 0001119 110.2889 249.8223 15.08845578 69311,6917.863,95.437,540.502,538.954,0.0
50183.0,STARLINK-3281,PAYLOAD,2023-03-18 17:34:55,15.08847314,0.0001377,53.2151,88.6572,92.147,267.968,0.00038556,5.855e-05,0.0,0 STARLINK-3281,1 50183U 21125AD  23077.73259075  .00005855  00000-0  38556-3 0  9998,2 50183  53.2151  88.6572 0001377  92.1470 267.9680 15.08847314 69423,6917.858,95.437,540.676,538.77,0.0
50183.0,STARLINK-3281,PAYLOAD,2023-03-19 06:18:01,15.0883742,0.0001454,53.2152,86.2799,88.5522,271.5637,1.0827e-05,-1.16e-06,0.0,0 STARLINK-3281,1 50183U 21125AD  23078.26251382 -.00000116  00000-0  10827-4 0  9998,2 50183  53.2152  86.2799 0001454  88.5522 271.5637 15.08837420 69501,6917.888,95.438,540.759,538.747,0.0
50183.0,STARLINK-3281,PAYLOAD,2023-03-19 12:39:33,15.08844545,0.0001426,53.2156,85.0898,95.6839,264.4316,0.00017263,2.461e-05,0.0,0 STARLINK-3281,1 50183U 21125AD  23078.52747159  .00002461  00000-0  17263-3 0  9993,2 50183  53.2156  85.0898 0001426  95.6839 264.4316 15.08844545 72674,6917.866,95.437,540.718,538.745,0.0
50183.0,STARLINK-3281,PAYLOAD,2023-03-19 17:25:43,15.08842662,0.0001265,53.2146,84.1971,87.8002,272.3135,0.00013088,1.796e-05,0.0,0 STARLINK-3281,1 50183U 21125AD  23078.72619279  .00001796  00000-0  13088-3 0  9997,2 50183  53.2146  84.1971 0001265  87.8002 272.3135 15.08842662 72700,6917.872,95.437,540.612,538.862,0.0
50183.0,STARLINK-3281,PAYLOAD,2023-03-20 07:44:11,15.08841798,0.0001312,53.2151,81.5206,84.0601,276.054,9.9748e-05,1.3e-05,0.0,0 STARLINK-3281,1 50183U 21125AD  23079.32235417  .00001300  00000-0  99748-4 0  9991,2 50183  53.2151  81.5206 0001312  84.0601 276.0540 15.08841798 69666,6917.875,95.437,540.648,538.832,0.0
50183.0,STARLINK-3281,PAYLOAD,2023-03-20 12:30:20,15.08846797,0.0001354,53.2157,80.628,82.0017,278.1129,0.00019497,2.817e-05,0.0,0 STARLINK-3281,1 50183U 21125AD  23079.52107212  .00002817  00000-0  19497-3 0  9990,2 50183  53.2157  80.6280 0001354  82.0017 278.1129 15.08846797 72821,6917.86,95.437,540.661,538.788,0.0
